ALOS (DAICHI)           
1 28931U 06002A   24284.89487500  .00013519  00000+0  24244-2 0  9998
2 28931  98.0495 235.6223 0002571  99.7220 260.4275 14.66860979998308
